GLOBALSTAR M075         
1 37192U 10054E   24326.37819010 -.00000094  00000+0  55798-4 0  9999
2 37192  51.9942  94.2671 0000777 105.9114 284.6571 12.62269116649609
GLOBALSTAR M073         
1 37193U 10054F   24326.56522177 -.00000085  00000+0  10344-3 0  9993
2 37193  52.0083   7.3603 0000272 135.9926  24.8369 12.62272807651661
GLOBALSTAR M083         
1 37739U 11033A   24326.16851420 -.00000085  00000+0  10300-3 0  9991
2 37739  51.9868 317.5841 0000455  91.4957   5.7949 12.62268050620583
GLOBALSTAR M088         
1 37740U 11033B   24326.15382924 -.00000073  00000+0  16928-3 0  9999
2 37740  51.9725 223.2943 0000943  77.4940  73.7629 12.62265344616129
GLOBALSTAR M091         
1 37741U 11033C   24326.09019932 -.00000096  00000+0  45075-4 0  9990
2 37741  51.9976 186.6737 0001259  93.4091  67.1616 12.62270846616909
GLOBALSTAR M085         
1 37742U 11033D   24326.52471038 -.00000111  00000+0 -40599-4 0  9993
2 37742  51.9835 136.5693 0001242 105.7007 291.5620 12.62269438617471
GLOBALSTAR M081         
1 37743U 11033E   24326.54772330 -.00000083  00000+0  11774-3 0  9994
2 37743  51.9931 139.1584 0001014 116.1051 265.6658 12.62273670617622
GLOBALSTAR M089         
1 37744U 11033F   24326.69124358 -.00000107  00000+0 -20212-4 0  9998
2 37744  51.9923  92.9878 0000508 115.6738  17.7292 12.62272389618738
